QIANFAN-60              
1 62790U 25016F   25273.45632892  .00000063  00000+0  77135-4 0  9991
2 62790  88.9732 110.6637 0014892 189.3455 170.7422 13.52524324 37336
QIANFAN-61              
1 62791U 25016G   25275.19234206  .00000088  00000+0  11793-3 0  9996
2 62791  88.9797 110.5981 0014369 182.9811 177.1256 13.50972838 37581
QIANFAN-62              
1 62792U 25016H   25275.19652411  .00000114  00000+0  15859-3 0  9996
2 62792  88.9743 110.5048 0015728 183.9634 176.1395 13.50966950 37571
QIANFAN-63              
1 62793U 25016J   25275.14707551  .00000097  00000+0  13145-3 0  9994
2 62793  88.9749 110.4565 0015630 189.5780 170.5075 13.50969663 37608
QIANFAN-64              
1 62794U 25016K   25275.18823457  .00000123  00000+0  17170-3 0  9995
2 62794  88.9736 110.4361 0013786 181.3206 178.7911 13.50971599 37602
QIANFAN-65              
1 62795U 25016L   25275.18413319  .00000119  00000+0  16573-3 0  9999
2 62795  88.9732 110.4651 0013562 183.0519 177.0552 13.50970579 37586
QIANFAN-66              
1 62796U 25016M   25275.21301147  .00000106  00000+0  14493-3 0  9994
2 62796  88.9751 110.4182 0014802 178.9889 181.1295 13.50965683 37634
QIANFAN-67              
1 62797U 25016N   25275.14293325  .00000099  00000+0  13476-3 0  9996
2 62797  88.9742 110.4579 0014568 186.2231 173.8742 13.50967141 37598
QIANFAN-68              
1 62798U 25016P   25275.13475395  .00000105  00000+0  14437-3 0  9991
2 62798  88.9746 110.5014 0014677 184.4746 175.6276 13.50969481 37579
QIANFAN-69              
1 62799U 25016Q   25275.22528632  .00000096  00000+0  13019-3 0  9999
2 62799  88.9724 110.3768 0015398 185.6070 174.4912 13.50967208 37629
QIANFAN-70              
1 62800U 25016R   25275.16758843  .00000134  00000+0  18835-3 0  9998
2 62800  88.9745 110.5062 0015277 175.8533 184.2747 13.50972060 37576
QIANFAN-71              
1 62801U 25016S   25275.16356047  .00000109  00000+0  15022-3 0  9996
2 62801  88.9739 110.4905 0015208 189.3714 170.7155 13.50970862 37571
QIANFAN-72              
1 62802U 25016T   25274.29087208  .00000084  00000+0  11481-3 0  9997
2 62802  88.9730 110.6012 0018440 200.3911 159.6505 13.49486897 37447
QIANFAN-73              
1 63159U 25046A   25275.20691603  .00000264  00000+0  39059-3 0  9999
2 63159  88.9817 327.4227 0013653 338.1620  21.8948 13.50978785 37752
QIANFAN-74              
1 63160U 25046B   25275.19041395  .00000270  00000+0  40001-3 0  9992
2 63160  88.9817 327.3128 0002251 104.0235 256.1166 13.50968364 37811
QIANFAN-75              
1 63161U 25046C   25275.17809940  .00000341  00000+0  51032-3 0  9994
2 63161  88.9819 327.5466 0014818 340.9971  19.0625 13.50976260 37686
QIANFAN-76              
1 63162U 25046D   25275.09992718  .00000169  00000+0  24320-3 0  9990
2 63162  88.9819 327.5356 0012425 343.2256  16.8483 13.50975020 37689
QIANFAN-77              
1 63163U 25046E   25275.15521491  .00000636  00000+0  45398-3 0  9991
2 63163  88.9814 326.1249 0012628 308.9241  51.0809 13.96059953 38466
QIANFAN-78              
1 63164U 25046F   25270.17873922  .00000155  00000+0  22125-3 0  9997
2 63164  88.9825 327.9067 0014334 359.8558   0.2586 13.50978582 37092
QIANFAN-79              
1 63165U 25046G   25275.16977267  .00000295  00000+0  43860-3 0  9993
2 63165  88.9821 327.4979 0013489 343.0092  17.0605 13.50970709 37714
QIANFAN-80              
1 63166U 25046H   25275.18635186  .00000321  00000+0  47834-3 0  9992
2 63166  88.9818 327.2050 0012650 348.2765  11.8090 13.50971538 37870
QIANFAN-81              
1 63167U 25046J   25275.16566178  .00000326  00000+0  48657-3 0  9994
2 63167  88.9818 327.2755 0013241 335.0564  24.9945 13.50983386 37824
QIANFAN-82              
1 63168U 25046K   25275.19866801  .00000313  00000+0  46633-3 0  9992
2 63168  88.9818 327.3157 0011666 344.9218  15.1583 13.50971315 37814
QIANFAN-83              
1 63169U 25046L   25275.14164502  .00000291  00000+0  36153-3 0  9998
2 63169  88.9818 327.2384 0012565 332.4271  27.6219 13.61958234 37851
QIANFAN-84              
1 63170U 25046M   25275.15310881  .00000212  00000+0  30972-3 0  9990
2 63170  88.9818 327.4534 0014483 339.2464  20.8097 13.50983511 37732
QIANFAN-85              
1 63171U 25046N   25273.44580510  .00000223  00000+0  32688-3 0  9997
2 63171  88.9820 327.5010 0012124 348.9073  11.1809 13.50980190 37575
QIANFAN-86              
1 63172U 25046P   25275.15753987  .00000237  00000+0  34857-3 0  9993
2 63172  88.9819 327.1854 0010038 350.2183   9.8771 13.50970468 37889
QIANFAN-87              
1 63173U 25046Q   25275.20280209  .00000307  00000+0  45768-3 0  9993
2 63173  88.9816 327.2950 0010547 343.6805  16.4005 13.50977608 37828
QIANFAN-88              
1 63174U 25046R   25275.14520282  .00000251  00000+0  37056-3 0  9994
2 63174  88.9818 327.2538 0011229 352.2872   7.8104 13.50970471 37848
QIANFAN-89              
1 63175U 25046S   25275.03392424  .00000245  00000+0  36112-3 0  9993
2 63175  88.9819 327.4542 0015171 339.8142  20.2408 13.50971960 37725
QIANFAN-90              
1 63176U 25046T   25275.13674249  .00000229  00000+0  33620-3 0  9996
2 63176  88.9817 327.4160 0012058 339.2257  20.8403 13.50967807 37751
